NORAD_CAT_ID,OBJECT_NAME,OBJECT_TYPE,EPOCH,MEAN_MOTION,ECCENTRICITY,INCLINATION,RA_OF_ASC_NODE,ARG_OF_PERICENTER,MEAN_ANOMALY,BSTAR,MEAN_MOTION_DOT,MEAN_MOTION_DDOT,TLE_LINE0,TLE_LINE1,TLE_LINE2,SEMIMAJOR_AXIS,PERIOD,APOGEE,PERIGEE,DECAYED
53797.0,STARLINK-4723,PAYLOAD,2024-04-01 14:03:30,15.08833409,0.000146,53.215,207.9994,89.8685,270.2474,5.6838e-05,6.17e-06,0.0,0 STARLINK-4723,1 53797U 22111AA  24092.58577522  .00000617  00000-0  56838-4 0  9994,2 53797  53.2150 207.9994 0001460  89.8685 270.2474 15.08833409 86140,6917.901,95.438,540.776,538.756,0.0
53797.0,STARLINK-4723,PAYLOAD,2024-04-02 13:54:18,15.08841092,0.0001438,53.2144,203.5384,82.2819,277.8337,0.00021847,3.191e-05,0.0,0 STARLINK-4723,1 53797U 22111AA  24093.57937722  .00003191  00000-0  21847-3 0  9997,2 53797  53.2144 203.5384 0001438  82.2819 277.8337 15.08841092 87081,6917.877,95.437,540.737,538.747,0.0
53797.0,STARLINK-4723,PAYLOAD,2024-04-03 13:45:04,15.08850629,0.0001395,53.2162,199.0772,86.1275,273.9876,0.00039751,6.046e-05,0.0,0 STARLINK-4723,1 53797U 22111AA  24094.57297352  .00006046  00000-0  39751-3 0  9991,2 53797  53.2162 199.0772 0001395  86.1275 273.9876 15.08850629 86442,6917.848,95.437,540.678,538.748,0.0
53797.0,STARLINK-4723,PAYLOAD,2024-04-04 13:35:51,15.08844546,0.0001363,53.2159,194.6163,82.9625,277.1522,9.2784e-05,1.189e-05,0.0,0 STARLINK-4723,1 53797U 22111AA  24095.56657282  .00001189  00000-0  92784-4 0  9992,2 53797  53.2159 194.6163 0001363  82.9625 277.1522 15.08844546 86592,6917.866,95.437,540.674,538.789,0.0
53797.0,STARLINK-4723,PAYLOAD,2024-04-05 13:26:38,15.08848935,0.0001446,53.2169,190.1582,90.3172,269.7986,0.00010539,1.39e-05,0.0,0 STARLINK-4723,1 53797U 22111AA  24096.56016727  .00001390  00000-0  10539-3 0  9997,2 53797  53.2169 190.1582 0001446  90.3172 269.7986 15.08848935 87533,6917.853,95.437,540.718,538.718,0.0
53797.0,STARLINK-4723,PAYLOAD,2024-04-06 05:20:30,15.08833895,0.0001265,53.2161,187.1851,92.1288,267.9849,-4.2584e-05,-9.65e-06,0.0,0 STARLINK-4723,1 53797U 22111AA  24097.22257591 -.00000965  00000-0 -42584-4 0  9992,2 53797  53.2161 187.1851 0001265  92.1288 267.9849 15.08833895 86847,6917.899,95.438,540.639,538.889,0.0
53797.0,STARLINK-4723,PAYLOAD,2024-04-07 09:57:27,15.08833639,0.0001266,53.2152,181.8321,87.167,272.9467,2.6258e-05,1.3e-06,0.0,0 STARLINK-4723,1 53797U 22111AA  24098.41490272  .00000130  00000-0  26258-4 0  9991,2 53797  53.2152 181.8321 0001266  87.1670 272.9467 15.08833639 87029,6917.9,95.438,540.641,538.889,0.0
53797.0,STARLINK-4723,PAYLOAD,2024-04-07 22:40:33,15.08833285,0.0001665,53.2156,179.4511,89.8624,270.2559,0.00038814,5.894e-05,0.0,0 STARLINK-4723,1 53797U 22111AA  24098.94482718  .00005894  00000-0  38814-3 0  9997,2 53797  53.2156 179.4511 0001665  89.8624 270.2559 15.08833285 87893,6917.901,95.438,540.918,538.614,0.0
53797.0,STARLINK-4723,PAYLOAD,2024-04-08 11:23:37,15.08849115,0.000141,53.2133,177.0715,88.2209,271.8945,0.00035129,5.309e-05,0.0,0 STARLINK-4723,1 53797U 22111AA  24099.47473858  .00005309  00000-0  35129-3 0  9998,2 53797  53.2133 177.0715 0001410  88.2209 271.8945 15.08849115 87185,6917.853,95.437,540.693,538.742,0.0
53797.0,STARLINK-4723,PAYLOAD,2024-04-08 22:31:19,15.08845956,0.0001306,53.2107,174.9893,85.9592,274.1549,0.00022933,3.364e-05,0.0,0 STARLINK-4723,1 53797U 22111AA  24099.93841906  .00003364  00000-0  22933-3 0  9990,2 53797  53.2107 174.9893 0001306  85.9592 274.1549 15.08845956 88043,6917.862,95.437,540.631,538.824,0.0
53797.0,STARLINK-4723,PAYLOAD,2024-04-09 11:14:25,15.08835729,0.0001209,53.2144,172.6104,87.7885,272.3245,0.00026143,3.875e-05,0.0,0 STARLINK-4723,1 53797U 22111AA  24100.46834493  .00003875  00000-0  26143-3 0  9998,2 53797  53.2144 172.6104 0001209  87.7885 272.3245 15.08835729 87332,6917.893,95.438,540.595,538.922,0.0
53797.0,STARLINK-4723,PAYLOAD,2024-04-09 22:22:06,15.08847369,0.0001545,53.214,170.529,85.0242,275.0927,8.3719e-05,1.045e-05,0.0,0 STARLINK-4723,1 53797U 22111AA  24100.93201741  .00001045  00000-0  83719-4 0  9994,2 53797  53.2140 170.5290 0001545  85.0242 275.0927 15.08847369 88197,6917.858,95.437,540.792,538.654,0.0
53797.0,STARLINK-4723,PAYLOAD,2024-04-10 04:43:38,15.08849026,0.0001497,53.2144,169.3392,85.3621,274.7542,0.00011662,1.569e-05,0.0,0 STARLINK-4723,1 53797U 22111AA  24101.19697534  .00001569  00000-0  11662-3 0  9990,2 53797  53.2144 169.3392 0001497  85.3621 274.7542 15.08849026 87448,6917.853,95.437,540.753,538.682,0.0
53797.0,STARLINK-4723,PAYLOAD,2024-04-10 11:05:11,15.08851201,0.0001403,53.2158,168.1503,83.9769,276.1383,0.00016337,2.314e-05,0.0,0 STARLINK-4723,1 53797U 22111AA  24101.46193292  .00002314  00000-0  16337-3 0  9995,2 53797  53.2158 168.1503 0001403  83.9769 276.1383 15.08851201 88277,6917.846,95.437,540.682,538.741,0.0
53797.0,STARLINK-4723,PAYLOAD,2024-04-11 04:34:25,15.08840476,0.0001338,53.2153,164.8799,79.1568,280.9575,8.4468e-05,1.057e-05,0.0,0 STARLINK-4723,1 53797U 22111AA  24102.19057732  .00001057  00000-0  84468-4 0  9998,2 53797  53.2153 164.8799 0001338  79.1568 280.9575 15.08840476 87595,6917.879,95.438,540.67,538.818,0.0
53797.0,STARLINK-4723,PAYLOAD,2024-04-11 10:55:58,15.08838561,0.0001298,53.2147,163.6882,81.5592,278.5547,3.0775e-05,2.02e-06,0.0,0 STARLINK-4723,1 53797U 22111AA  24102.45553781  .00000202  00000-0  30775-4 0  9995,2 53797  53.2147 163.6882 0001298  81.5592 278.5547 15.08838561 88424,6917.885,95.438,540.648,538.852,0.0
53797.0,STARLINK-4723,PAYLOAD,2024-04-11 20:28:17,15.08839664,0.0001316,53.215,161.9039,80.7946,279.3195,3.2755e-05,2.33e-06,0.0,0 STARLINK-4723,1 53797U 22111AA  24102.85297725  .00000233  00000-0  32755-4 0  9996,2 53797  53.2150 161.9039 0001316  80.7946 279.3195 15.08839664 88487,6917.881,95.438,540.657,538.836,0.0
53797.0,STARLINK-4723,PAYLOAD,2024-04-12 04:25:13,15.08835484,0.0001416,53.2162,160.4199,85.9508,274.1646,-5.3096e-05,-1.133e-05,0.0,0 STARLINK-4723,1 53797U 22111AA  24103.18418043 -.00001133  00000-0 -53096-4 0  9994,2 53797  53.2162 160.4199 0001416  85.9508 274.1646 15.08835484 87741,6917.894,95.438,540.739,538.78,0.0
53797.0,STARLINK-4723,PAYLOAD,2024-04-12 10:46:45,15.088395,0.0001431,53.2173,159.2287,83.0545,277.061,-5.7395e-06,-3.79e-06,0.0,0 STARLINK-4723,1 53797U 22111AA  24103.44914153 -.00000379  00000-0 -57395-5 0  9994,2 53797  53.2173 159.2287 0001431  83.0545 277.0610 15.08839500 88572,6917.882,95.438,540.737,538.757,0.0
53797.0,STARLINK-4723,PAYLOAD,2024-04-13 10:37:32,15.08841169,0.0001323,53.2162,154.7705,88.301,271.8134,0.00015201,2.132e-05,0.0,0 STARLINK-4723,1 53797U 22111AA  24104.44273933  .00002132  00000-0  15201-3 0  9994,2 53797  53.2162 154.7705 0001323  88.3010 271.8134 15.08841169 87936,6917.877,95.437,540.657,538.827,0.0
53797.0,STARLINK-4723,PAYLOAD,2024-04-14 08:52:56,15.08840752,0.0001423,53.2159,150.6018,113.9585,246.1556,0.00010362,1.362e-05,0.0,0 STARLINK-4723,1 53797U 22111AA  24105.37010200  .00001362  00000-0  10362-3 0  9990,2 53797  53.2159 150.6018 0001423 113.9585 246.1556 15.08840752 88073,6917.878,95.438,540.728,538.759,0.0
53797.0,STARLINK-4723,PAYLOAD,2024-04-15 02:22:11,15.08831363,0.0001796,53.215,147.3317,127.0114,233.1043,0.0002723,4.047e-05,0.0,0 STARLINK-4723,1 53797U 22111AA  24106.09874435  .00004047  00000-0  27230-3 0  9993,2 53797  53.2150 147.3317 0001796 127.0114 233.1043 15.08831363 88183,6917.907,95.438,541.014,538.529,0.0
53797.0,STARLINK-4723,PAYLOAD,2024-04-15 10:19:07,15.08838333,0.0001479,53.2149,145.8477,94.7028,265.4133,0.00037591,5.699e-05,0.0,0 STARLINK-4723,1 53797U 22111AA  24106.42994428  .00005699  00000-0  37591-3 0  9990,2 53797  53.2149 145.8477 0001479  94.7028 265.4133 15.08838333 89029,6917.885,95.438,540.774,538.727,0.0
53797.0,STARLINK-4723,PAYLOAD,2024-04-15 19:51:25,15.08846208,0.0001453,53.2155,144.0651,88.8159,271.3,7.3767e-05,8.86e-06,0.0,0 STARLINK-4723,1 53797U 22111AA  24106.82738016  .00000886  00000-0  73767-4 0  9992,2 53797  53.2155 144.0651 0001453  88.8159 271.3000 15.08846208 88299,6917.861,95.437,540.732,538.721,0.0
53797.0,STARLINK-4723,PAYLOAD,2024-04-16 11:45:16,15.08851319,0.0001521,53.2148,141.0885,97.4994,262.6171,0.00028232,4.209e-05,0.0,0 STARLINK-4723,1 53797U 22111AA  24107.48977859  .00004209  00000-0  28232-3 0  9994,2 53797  53.2148 141.0885 0001521  97.4994 262.6171 15.08851319 89186,6917.846,95.437,540.763,538.659,0.0
53797.0,STARLINK-4723,PAYLOAD,2024-04-17 05:14:31,15.08850346,0.0001551,53.2144,137.8159,100.566,259.5507,0.00012673,1.73e-05,0.0,0 STARLINK-4723,1 53797U 22111AA  24108.21841738  .00001730  00000-0  12673-3 0  9990,2 53797  53.2144 137.8159 0001551 100.5660 259.5507 15.08850346 88500,6917.849,95.437,540.787,538.641,0.0
53797.0,STARLINK-4723,PAYLOAD,2024-04-17 11:36:03,15.08853124,0.0001585,53.2149,136.6262,101.9555,258.1615,0.00015375,2.161e-05,0.0,0 STARLINK-4723,1 53797U 22111AA  24108.48337417  .00002161  00000-0  15375-3 0  9994,2 53797  53.2149 136.6262 0001585 101.9555 258.1615 15.08853124 89336,6917.84,95.437,540.802,538.609,0.0
53797.0,STARLINK-4723,PAYLOAD,2024-04-18 01:54:32,15.08830227,0.0001462,53.2142,133.9497,103.5877,256.5278,-8.3651e-05,-1.619e-05,0.0,0 STARLINK-4723,1 53797U 22111AA  24109.07954781 -.00001619  00000-0 -83651-4 0  9991,2 53797  53.2142 133.9497 0001462 103.5877 256.5278 15.08830227 88636,6917.91,95.438,540.787,538.764,0.0
53797.0,STARLINK-4723,PAYLOAD,2024-04-18 11:26:55,15.08765589,0.0001766,53.2159,132.166,106.3807,253.7379,-0.00098565,-0.00015909,0.0,0 STARLINK-4723,1 53797U 22111AA  24109.47702549 -.00015909  00000-0 -98565-3 0  9994,2 53797  53.2159 132.1660 0001766 106.3807 253.7379 15.08765589 88693,6918.108,95.442,541.195,538.751,0.0
53797.0,STARLINK-4723,PAYLOAD,2024-04-19 04:56:08,15.08812026,0.0001352,53.2153,128.8958,75.4778,284.6364,-0.00018164,-3.175e-05,0.0,0 STARLINK-4723,1 53797U 22111AA  24110.20565797 -.00003175  00000-0 -18164-3 0  9998,2 53797  53.2153 128.8958 0001352  75.4778 284.6364 15.08812026 88802,6917.966,95.439,540.766,538.896,0.0
